{
  "type": "FeatureCollection",
  "features": [
    {
      "type": "Feature",
      "properties": {
        "norad_id": 66348,
        "name": "STARLINK-35849",
        "group": "last-30-days",
        "lat": -10.57588567967009,
        "lon": -42.994147156534936,
        "alt_km": 370.561912544611,
        "timestamp": "2025-12-02T15:49:05.947357+00:00",
        "meta_object_name": "STARLINK-35849",
        "meta_object_id": "2025-254A",
        "meta_epoch": "2025-12-02T06:00:02.999808",
        "meta_mean_motion": 15.68535932,
        "meta_eccentricity": 0.00013208,
        "meta_inclination": 53.1592,
        "meta_ra_of_asc_node": 327.0637,
        "meta_arg_of_pericenter": 89.2868,
        "meta_mean_anomaly": 107.7014,
        "meta_ephemeris_type": 0,
        "meta_classification_type": "U",
        "meta_norad_cat_id": 66348,
        "meta_element_set_no": 999,
        "meta_rev_at_epoch": 523,
        "meta_bstar": -0.019636555,
        "meta_mean_motion_dot": -0.0199807,
        "meta_mean_motion_ddot": 0,
        "tle_line1": "1 66348U 25254A   25336.25003472 -.01998070  00000+0 -19637-1 0  9999",
        "tle_line2": "2 66348  53.1592 327.0637 0001320  89.2868 107.7014 15.68535932  5236"
      },
      "geometry": {
        "type": "Point",
        "coordinates": [
          -42.994147156534936,
          -10.57588567967009
        ]
      }
    },
    {
      "type": "Feature",
      "properties": {
        "norad_id": 66349,
        "name": "STARLINK-35848",
        "group": "last-30-days",
        "lat": -9.055384618885313,
        "lon": -41.814316299428235,
        "alt_km": 370.38052603457163,
        "timestamp": "2025-12-02T15:49:05.947367+00:00",
        "meta_object_name": "STARLINK-35848",
        "meta_object_id": "2025-254B",
        "meta_epoch": "2025-12-02T06:00:02.999808",
        "meta_mean_motion": 15.68532,
        "meta_eccentricity": 0.00013004,
        "meta_inclination": 53.1592,
        "meta_ra_of_asc_node": 327.0593,
        "meta_arg_of_pericenter": 90.7535,
        "meta_mean_anomaly": 108.1542,
        "meta_ephemeris_type": 0,
        "meta_classification_type": "U",
        "meta_norad_cat_id": 66349,
        "meta_element_set_no": 999,
        "meta_rev_at_epoch": 523,
        "meta_bstar": -0.01959175,
        "meta_mean_motion_dot": -0.01993754,
        "meta_mean_motion_ddot": 0,
        "tle_line1": "1 66349U 25254B   25336.25003472 -.01993754  00000+0 -19592-1 0  9994",
        "tle_line2": "2 66349  53.1592 327.0593 0001300  90.7535 108.1542 15.68532000  5238"
      },
      "geometry": {
        "type": "Point",
        "coordinates": [
          -41.814316299428235,
          -9.055384618885313
        ]
      }
    },
    {
      "type": "Feature",
      "properties": {
        "norad_id": 66350,
        "name": "STARLINK-35829",
        "group": "last-30-days",
        "lat": -7.5319501191147715,
        "lon": -40.64503232131428,
        "alt_km": 370.2307681543889,
        "timestamp": "2025-12-02T15:49:05.947378+00:00",
        "meta_object_name": "STARLINK-35829",
        "meta_object_id": "2025-254C",
        "meta_epoch": "2025-12-02T06:00:02.999808",
        "meta_mean_motion": 15.68537572,
        "meta_eccentricity": 0.0001366,
        "meta_inclination": 53.1588,
        "meta_ra_of_asc_node": 327.0551,
        "meta_arg_of_pericenter": 94.0957,
        "meta_mean_anomaly": 106.7243,
        "meta_ephemeris_type": 0,
        "meta_classification_type": "U",
        "meta_norad_cat_id": 66350,
        "meta_element_set_no": 999,
        "meta_rev_at_epoch": 523,
        "meta_bstar": -0.019647999,
        "meta_mean_motion_dot": -0.01999251,
        "meta_mean_motion_ddot": 0,
        "tle_line1": "1 66350U 25254C   25336.25003472 -.01999251  00000+0 -19648-1 0  9996",
        "tle_line2": "2 66350  53.1588 327.0551 0001366  94.0957 106.7243 15.68537572  5237"
      },
      "geometry": {
        "type": "Point",
        "coordinates": [
          -40.64503232131428,
          -7.5319501191147715
        ]
      }
    },
    {
      "type": "Feature",
      "properties": {
        "norad_id": 66351,
        "name": "STARLINK-35828",
        "group": "last-30-days",
        "lat": -6.0038107512160055,
        "lon": -39.482190665213786,
        "alt_km": 370.01223982202737,
        "timestamp": "2025-12-02T15:49:05.947388+00:00",
        "meta_object_name": "STARLINK-35828",
        "meta_object_id": "2025-254D",
        "meta_epoch": "2025-12-02T06:00:02.999808",
        "meta_mean_motion": 15.68539521,
        "meta_eccentricity": 0.00013089,
        "meta_inclination": 53.159,
        "meta_ra_of_asc_node": 327.0513,
        "meta_arg_of_pericenter": 93.2909,
        "meta_mean_anomaly": 109.4471,
        "meta_ephemeris_type": 0,
        "meta_classification_type": "U",
        "meta_norad_cat_id": 66351,
        "meta_element_set_no": 999,
        "meta_rev_at_epoch": 520,
        "meta_bstar": -0.019700498,
        "meta_mean_motion_dot": -0.02004047,
        "meta_mean_motion_ddot": 0,
        "tle_line1": "1 66351U 25254D   25336.25003472 -.02004047  00000+0 -19700-1 0  9997",
        "tle_line2": "2 66351  53.1590 327.0513 0001308  93.2909 109.4471 15.68539521  5209"
      },
      "geometry": {
        "type": "Point",
        "coordinates": [
          -39.482190665213786,
          -6.0038107512160055
        ]
      }
    },
    {
      "type": "Feature",
      "properties": {
        "norad_id": 66352,
        "name": "STARLINK-35850",
        "group": "last-30-days",
        "lat": -4.474330962164891,
        "lon": -38.32746470447719,
        "alt_km": 369.79038161986136,
        "timestamp": "2025-12-02T15:49:05.947420+00:00",
        "meta_object_name": "STARLINK-35850",
        "meta_object_id": "2025-254E",
        "meta_epoch": "2025-12-02T06:00:02.999808",
        "meta_mean_motion": 15.68540744,
        "meta_eccentricity": 0.00013155,
        "meta_inclination": 53.1591,
        "meta_ra_of_asc_node": 327.0468,
        "meta_arg_of_pericenter": 92.6997,
        "meta_mean_anomaly": 111.953,
        "meta_ephemeris_type": 0,
        "meta_classification_type": "U",
        "meta_norad_cat_id": 66352,
        "meta_element_set_no": 999,
        "meta_rev_at_epoch": 518,
        "meta_bstar": -0.019699329,
        "meta_mean_motion_dot": -0.02004037,
        "meta_mean_motion_ddot": 0,
        "tle_line1": "1 66352U 25254E   25336.25003472 -.02004037  00000+0 -19699-1 0  9994",
        "tle_line2": "2 66352  53.1591 327.0468 0001315  92.6997 111.9530 15.68540744  5188"
      },
      "geometry": {
        "type": "Point",
        "coordinates": [
          -38.32746470447719,
          -4.474330962164891
        ]
      }
    },
    {
      "type": "Feature",
      "properties": {
        "norad_id": 66353,
        "name": "STARLINK-35869",
        "group": "last-30-days",
        "lat": -2.942781539597772,
        "lon": -37.1770992145599,
        "alt_km": 369.52144438237247,
        "timestamp": "2025-12-02T15:49:05.947436+00:00",
        "meta_object_name": "STARLINK-35869",
        "meta_object_id": "2025-254F",
        "meta_epoch": "2025-12-02T06:00:02.999808",
        "meta_mean_motion": 15.68540254,
        "meta_eccentricity": 0.00013576,
        "meta_inclination": 53.1591,
        "meta_ra_of_asc_node": 327.0426,
        "meta_arg_of_pericenter": 88.163,
        "meta_mean_anomaly": 118.4083,
        "meta_ephemeris_type": 0,
        "meta_classification_type": "U",
        "meta_norad_cat_id": 66353,
        "meta_element_set_no": 999,
        "meta_rev_at_epoch": 523,
        "meta_bstar": -0.019709965,
        "meta_mean_motion_dot": -0.02004986,
        "meta_mean_motion_ddot": 0,
        "tle_line1": "1 66353U 25254F   25336.25003472 -.02004986  00000+0 -19710-1 0  9992",
        "tle_line2": "2 66353  53.1591 327.0426 0001357  88.1630 118.4083 15.68540254  5230"
      },
      "geometry": {
        "type": "Point",
        "coordinates": [
          -37.1770992145599,
          -2.942781539597772
        ]
      }
    },
    {
      "type": "Feature",
      "properties": {
        "norad_id": 66354,
        "name": "STARLINK-35895",
        "group": "last-30-days",
        "lat": -38.28785609916621,
        "lon": -178.42528147037277,
        "alt_km": 413.21511831911994,
        "timestamp": "2025-12-02T15:49:05.947447+00:00",
        "meta_object_name": "STARLINK-35895",
        "meta_object_id": "2025-254G",
        "meta_epoch": "2025-12-02T06:00:02.999808",
        "meta_mean_motion": 15.55156179,
        "meta_eccentricity": 0.00013954,
        "meta_inclination": 53.1591,
        "meta_ra_of_asc_node": 327.2562,
        "meta_arg_of_pericenter": 74.0363,
        "meta_mean_anomaly": 26.8289,
        "meta_ephemeris_type": 0,
        "meta_classification_type": "U",
        "meta_norad_cat_id": 66354,
        "meta_element_set_no": 999,
        "meta_rev_at_epoch": 523,
        "meta_bstar": -0.041223218,
        "meta_mean_motion_dot": -0.02462982,
        "meta_mean_motion_ddot": 0,
        "tle_line1": "1 66354U 25254G   25336.25003472 -.02462982  00000+0 -41223-1 0  9991",
        "tle_line2": "2 66354  53.1591 327.2562 0001395  74.0363  26.8289 15.55156179  5238"
      },
      "geometry": {
        "type": "Point",
        "coordinates": [
          -178.42528147037277,
          -38.28785609916621
        ]
      }
    }
  ]
}